[{"OBJECT_NAME":"STARLINK-34962","OBJECT_ID":"2025-179P","EPOCH":"2026-03-09T15:50:23.034912","MEAN_MOTION":15.05654089,"ECCENTRICITY":9.012e-5,"INCLINATION":97.6032,"RA_OF_ASC_NODE":112.9309,"ARG_OF_PERICENTER":99.4001,"MEAN_ANOMALY":260.7328,"EPHEMERIS_TYPE":0,"CLASSIFICATION_TYPE":"U","NORAD_CAT_ID":65248,"ELEMENT_SET_NO":999,"REV_AT_EPOCH":3182,"BSTAR":0.00025081066,"MEAN_MOTION_DOT":3.56e-5,"MEAN_MOTION_DDOT":0},{"OBJECT_NAME":"RAAF M1","OBJECT_ID":"2018-099X","EPOCH":"2026-03-09T15:51:10.230048","MEAN_MOTION":15.07065376,"ECCENTRICITY":0.00134971,"INCLINATION":97.4534,"RA_OF_ASC_NODE":114.8325,"ARG_OF_PERICENTER":21.6261,"MEAN_ANOMALY":338.5534,"EPHEMERIS_TYPE":0,"CLASSIFICATION_TYPE":"U","NORAD_CAT_ID":43779,"ELEMENT_SET_NO":999,"REV_AT_EPOCH":39714,"BSTAR":0.00026511092,"MEAN_MOTION_DOT":3.923e-5,"MEAN_MOTION_DDOT":0}]
